OBJECT_NAME,OBJECT_ID,EPOCH,MEAN_MOTION,ECCENTRICITY,INCLINATION,RA_OF_ASC_NODE,ARG_OF_PERICENTER,MEAN_ANOMALY,EPHEMERIS_TYPE,CLASSIFICATION_TYPE,NORAD_CAT_ID,ELEMENT_SET_NO,REV_AT_EPOCH,BSTAR,MEAN_MOTION_DOT,MEAN_MOTION_DDOT
KUIPER-00513,2026-140G,2026-07-09T14:42:03.309120,15.38077137,.0007431,51.8786,290.2710,316.1495,43.8902,0,U,69598,999,468,.70751E-3,.26653E-3,0
KUIPER-00516,2026-140H,2026-07-09T14:51:04.422816,15.37505084,.0006835,51.8784,290.3069,334.1487,25.9157,0,U,69599,999,468,.3337E-3,.12103E-3,0
KUIPER-00517,2026-140J,2026-07-09T14:23:38.897664,15.38737863,.001072,51.8773,290.1814,270.9978,88.9781,0,U,69600,999,468,.79751E-3,.30802E-3,0
KUIPER-00520,2026-140K,2026-07-09T14:52:36.222816,15.37569154,.0006881,51.8793,290.3215,333.8181,26.2457,0,U,69601,999,468,.70279E-3,.26029E-3,0
KUIPER-00522,2026-140L,2026-07-09T14:18:06.668928,15.38558445,.0013256,51.8792,290.1610,244.9258,115.0353,0,U,69602,999,468,.30433E-3,.11416E-3,0
KUIPER-00528,2026-140M,2026-07-09T14:55:41.422080,15.37415170,.0005927,51.8764,290.3271,340.6948,19.3813,0,U,69603,999,468,.66169E-3,.24351E-3,0
KUIPER-00532,2026-140N,2026-07-09T15:07:22.863936,15.36698531,.0005654,51.8764,290.3785,14.2215,345.8929,0,U,69604,999,468,.70892E-3,.25515E-3,0
KUIPER-00533,2026-140P,2026-07-09T14:36:56.956320,15.38181942,.0007954,51.8775,290.2427,306.5126,53.5128,0,U,69605,999,468,.33629E-3,.1248E-3,0
KUIPER-00534,2026-140Q,2026-07-09T18:51:41.984640,15.38630290,.0013294,51.8820,289.1919,246.8413,113.1174,0,U,69606,999,471,.56684E-3,.21694E-3,0
KUIPER-00537,2026-140R,2026-07-09T15:29:44.617056,15.34434333,.0010623,51.8781,290.4853,34.0109,326.1556,0,U,69607,999,468,.87731E-3,.29486E-3,0
KUIPER-00538,2026-140S,2026-07-09T14:49:28.446240,15.37641736,.0006462,51.8804,290.3060,321.6180,38.4347,0,U,69608,999,468,.32952E-3,.12E-3,0
KUIPER-00540,2026-140T,2026-07-09T15:02:38.760864,15.36885739,.0006325,51.8799,290.3665,4.2306,355.8733,0,U,69609,999,468,.66728E-3,.24139E-3,0
KUIPER-00541,2026-140U,2026-07-09T16:00:01.998720,15.38306829,.0007566,51.8828,289.9778,303.5884,15.2827,0,U,69610,999,460,.11622E-2,.44474E-3,0
KUIPER-00542,2026-140V,2026-07-09T14:34:49.639008,15.38264969,.000796,51.8764,290.2328,283.1050,76.9048,0,U,69611,999,468,.7156E-3,.27134E-3,0
KUIPER-00543,2026-140W,2026-07-09T15:08:32.803872,15.36747809,.0007704,51.8763,290.3813,16.9946,343.1297,0,U,69612,999,468,.31556E-3,.11141E-3,0
KUIPER-00544,2026-140X,2026-07-09T14:40:38.872992,15.38097081,.0006941,51.8779,290.2597,298.6802,61.3487,0,U,69613,999,468,.72658E-3,.27399E-3,0
KUIPER-00546,2026-140Y,2026-07-09T18:52:59.196864,15.38781309,.0014259,51.8790,289.1920,243.6293,116.3230,0,U,69614,999,471,.56012E-3,.21548E-3,0
KUIPER-00547,2026-140Z,2026-07-09T14:30:52.979040,15.37813223,.0010976,51.8825,290.2251,268.4053,91.5677,0,U,69615,999,468,.40823E-3,.15069E-3,0
KUIPER-00549,2026-140AA,2026-07-09T14:57:19.711584,15.37330690,.0007494,51.8747,290.3307,353.2836,6.8049,0,U,69616,999,468,.76077E-3,.28001E-3,0
KUIPER-00550,2026-140AB,2026-07-09T18:50:09.076128,15.33039969,.0007604,51.8783,289.9104,34.1039,326.0433,0,U,69617,999,470,-.13264E-2,-.43138E-3,0
KUIPER-00551,2026-140AC,2026-07-09T14:21:27.942912,15.38541546,.001467,51.8759,290.1745,236.3857,123.5730,0,U,69618,999,468,-.10604E-2,-.41327E-3,0
KUIPER-00554,2026-140AD,2026-07-09T14:28:32.257632,15.37864127,.0010895,51.8769,290.2074,270.6942,89.2797,0,U,69619,999,468,.28624E-3,.10457E-3,0
KUIPER-00555,2026-140AE,2026-07-09T19:05:16.899936,15.37917458,.0011452,51.8819,289.2514,264.9015,95.0665,0,U,69620,999,471,.60339E-3,.22567E-3,0
KUIPER-00556,2026-140AF,2026-07-09T14:24:50.715936,15.38237609,.0012088,51.8810,290.1940,246.5706,113.4011,0,U,69621,999,468,.30788E-3,.11426E-3,0
KUIPER-00557,2026-140AG,2026-07-09T14:34:48.745632,15.37483387,.0010115,51.8801,290.2398,278.2612,81.7227,0,U,69622,999,468,.40457E-3,.14764E-3,0
KUIPER-00560,2026-140AH,2026-07-09T19:07:14.966400,15.38766673,.0008951,51.8786,289.2555,288.8578,71.1439,0,U,69623,999,471,.45991E-3,.17568E-3,0
KUIPER-00561,2026-140AJ,2026-07-09T14:30:09.626112,15.38642340,.0008326,51.8810,290.2200,284.2545,75.7518,0,U,69624,999,468,.51568E-3,.19669E-3,0
KUIPER-00564,2026-140AK,2026-07-09T20:00:01.999008,15.37237562,.0009333,51.8813,289.1048,279.5293,273.2459,0,U,69625,999,396,.15848E-3,.5487E-4,0
KUIPER-00567,2026-140AL,2026-07-09T14:21:24.998400,15.38329365,.0013316,51.8803,290.1770,254.3756,105.5762,0,U,69626,999,468,.26035E-3,.9631E-4,0
KUIPER-00573,2026-140AM,2026-07-09T14:39:50.952096,15.37370743,.0011442,51.8844,290.2638,274.2330,85.7349,0,U,69627,999,468,.49339E-3,.18041E-3,0
