KUIPER-00513            
1 69598U 26140G   26190.61253830  .00026653  00000+0  70751-3 0  9990
2 69598  51.8786 290.2710 0007431 316.1495  43.8902 15.38077137  4685
KUIPER-00516            
1 69599U 26140H   26190.61880119  .00012103  00000+0  33370-3 0  9998
2 69599  51.8784 290.3069 0006835 334.1487  25.9157 15.37505084  4689
KUIPER-00517            
1 69600U 26140J   26190.59975576  .00030802  00000+0  79751-3 0  9999
2 69600  51.8773 290.1814 0010720 270.9978  88.9781 15.38737863  4681
KUIPER-00520            
1 69601U 26140K   26190.61986369  .00026029  00000+0  70279-3 0  9997
2 69601  51.8793 290.3215 0006881 333.8181  26.2457 15.37569154  4689
KUIPER-00522            
1 69602U 26140L   26190.59591052  .00011416  00000+0  30433-3 0  9998
2 69602  51.8792 290.1610 0013256 244.9258 115.0353 15.38558445  4681
KUIPER-00528            
1 69603U 26140M   26190.62200720  .00024351  00000+0  66169-3 0  9999
2 69603  51.8764 290.3271 0005927 340.6948  19.3813 15.37415170  4685
KUIPER-00532            
1 69604U 26140N   26190.63012574  .00025515  00000+0  70892-3 0  9990
2 69604  51.8764 290.3785 0005654  14.2215 345.8929 15.36698531  4682
KUIPER-00533            
1 69605U 26140P   26190.60899255  .00012480  00000+0  33629-3 0  9991
2 69605  51.8775 290.2427 0007954 306.5126  53.5128 15.38181942  4689
KUIPER-00534            
1 69606U 26140Q   26190.78590260  .00021694  00000+0  56684-3 0  9998
2 69606  51.8820 289.1919 0013294 246.8413 113.1174 15.38630290  4716
KUIPER-00537            
1 69607U 26140R   26190.64565529  .00029486  00000+0  87731-3 0  9998
2 69607  51.8781 290.4853 0010623  34.0109 326.1556 15.34434333  4689
KUIPER-00538            
1 69608U 26140S   26190.61769035  .00012000  00000+0  32952-3 0  9993
2 69608  51.8804 290.3060 0006462 321.6180  38.4347 15.37641736  4686
KUIPER-00540            
1 69609U 26140T   26190.62683751  .00024139  00000+0  66728-3 0  9999
2 69609  51.8799 290.3665 0006325   4.2306 355.8733 15.36885739  4680
KUIPER-00541            
1 69610U 26140U   26190.66668980  .00044474  00000+0  11622-2 0  9998
2 69610  51.8828 289.9778 0007566 303.5884  15.2827 15.38306829  4601
KUIPER-00542            
1 69611U 26140V   26190.60751897  .00027134  00000+0  71560-3 0  9995
2 69611  51.8764 290.2328 0007960 283.1050  76.9048 15.38264969  4688
KUIPER-00543            
1 69612U 26140W   26190.63093523  .00011141  00000+0  31556-3 0  9996
2 69612  51.8763 290.3813 0007704  16.9946 343.1297 15.36747809  4682
KUIPER-00544            
1 69613U 26140X   26190.61156103  .00027399  00000+0  72658-3 0  9999
2 69613  51.8779 290.2597 0006941 298.6802  61.3487 15.38097081  4682
KUIPER-00546            
1 69614U 26140Y   26190.78679626  .00021548  00000+0  56012-3 0  9994
2 69614  51.8790 289.1920 0014259 243.6293 116.3230 15.38781309  4712
KUIPER-00547            
1 69615U 26140Z   26190.60477985  .00015069  00000+0  40823-3 0  9994
2 69615  51.8825 290.2251 0010976 268.4053  91.5677 15.37813223  4688
KUIPER-00549            
1 69616U 26140AA  26190.62314481  .00028001  00000+0  76077-3 0  9998
2 69616  51.8747 290.3307 0007494 353.2836   6.8049 15.37330690  4682
KUIPER-00550            
1 69617U 26140AB  26190.78482727 -.00043138  00000+0 -13264-2 0  9993
2 69617  51.8783 289.9104 0007604  34.1039 326.0433 15.33039969  4703
KUIPER-00551            
1 69618U 26140AC  26190.59824008 -.00041327  00000+0 -10604-2 0  9998
2 69618  51.8759 290.1745 0014670 236.3857 123.5730 15.38541546  4688
KUIPER-00554            
1 69619U 26140AD  26190.60315113  .00010457  00000+0  28624-3 0  9993
2 69619  51.8769 290.2074 0010895 270.6942  89.2797 15.37864127  4680
KUIPER-00555            
1 69620U 26140AE  26190.79533449  .00022567  00000+0  60339-3 0  9993
2 69620  51.8819 289.2514 0011452 264.9015  95.0665 15.37917458  4711
KUIPER-00556            
1 69621U 26140AF  26190.60058699  .00011426  00000+0  30788-3 0  9990
2 69621  51.8810 290.1940 0012088 246.5706 113.4011 15.38237609  4686
KUIPER-00557            
1 69622U 26140AG  26190.60750863  .00014764  00000+0  40457-3 0  9995
2 69622  51.8801 290.2398 0010115 278.2612  81.7227 15.37483387  4683
KUIPER-00560            
1 69623U 26140AH  26190.79670100  .00017568  00000+0  45991-3 0  9994
2 69623  51.8786 289.2555 0008951 288.8578  71.1439 15.38766673  4717
KUIPER-00561            
1 69624U 26140AJ  26190.60427808  .00019669  00000+0  51568-3 0  9991
2 69624  51.8810 290.2200 0008326 284.2545  75.7518 15.38642340  4683
KUIPER-00564            
1 69625U 26140AK  26190.83335647  .00005487  00000+0  15848-3 0  9990
2 69625  51.8813 289.1048 0009333 279.5293 273.2459 15.37237562  3964
KUIPER-00567            
1 69626U 26140AL  26190.59820600  .00009631  00000+0  26035-3 0  9997
2 69626  51.8803 290.1770 0013316 254.3756 105.5762 15.38329365  4687
KUIPER-00573            
1 69627U 26140AM  26190.61100639  .00018041  00000+0  49339-3 0  9991
2 69627  51.8844 290.2638 0011442 274.2330  85.7349 15.37370743  4689
